GLOBALSTAR M001         
1 25162U 98008A   25115.50506072 -.00000067  00000+0  22860-3 0  9994
2 25162  52.0009 126.5590 0001486 137.8536  24.7388 12.38213154237299
GLOBALSTAR M004         
1 25163U 98008B   25114.69565687 -.00000079  00000+0  14011-3 0  9993
2 25163  51.9995 217.3411 0003539 165.8516 359.5629 12.63394333254926
GLOBALSTAR M002         
1 25164U 98008C   25114.89577909 -.00000079  00000+0 -43504-4 0  9997
2 25164  52.0054  13.8219 0002044  55.9503 304.1511 11.61509370177943
GLOBALSTAR M003         
1 25165U 98008D   25114.94952597 -.00000070  00000+0  21016-3 0  9997
2 25165  52.0013 315.9685 0007981 181.0791 327.2673 12.12076753226858
GLOBALSTAR M014         
1 25306U 98023A   25115.23336418 -.00000062  00000+0  29375-3 0  9999
2 25306  51.9845 297.3160 0000370 213.0787 317.4028 11.65479848184984
GLOBALSTAR M006         
1 25307U 98023B   25115.42273406 -.00000061  00000+0  29597-3 0  9993
2 25307  51.9975 347.3370 0003593  21.0241 149.4571 11.58174446210827
GLOBALSTAR M015         
1 25308U 98023C   25115.22576112 -.00000065  00000+0  19158-3 0  9998
2 25308  51.9809  83.8669 0012715 342.1085  31.1232 11.48858795188365
GLOBALSTAR M008         
1 25309U 98023D   25114.87376764 -.00000039  00000+0  44893-3 0  9995
2 25309  51.9996 352.6247 0003362  67.4907  36.8249 12.36067662231250
